NORAD_CAT_ID,OBJECT_NAME,OBJECT_TYPE,EPOCH,MEAN_MOTION,ECCENTRICITY,INCLINATION,RA_OF_ASC_NODE,ARG_OF_PERICENTER,MEAN_ANOMALY,BSTAR,MEAN_MOTION_DOT,MEAN_MOTION_DDOT,TLE_LINE0,TLE_LINE1,TLE_LINE2,SEMIMAJOR_AXIS,PERIOD,APOGEE,PERIGEE,DECAYED
53419.0,STARLINK-4476,PAYLOAD,2024-06-05 03:43:26,15.08839645,0.0001344,53.2164,118.5688,85.323,274.7916,-1.8489e-06,-3.17e-06,0.0,0 STARLINK-4476,1 53419U 22097AH  24157.15517328 -.00000317  00000-0 -18489-5 0  9991,2 53419  53.2164 118.5688 0001344  85.3230 274.7916 15.08839645101169,6917.881,95.438,540.676,538.817,0.0
53419.0,STARLINK-4476,PAYLOAD,2024-06-05 21:12:41,15.08839031,0.0001636,53.2181,115.298,91.4845,268.6335,3.4554e-05,2.62e-06,0.0,0 STARLINK-4476,1 53419U 22097AH  24157.88381283  .00000262  00000-0  34554-4 0  9997,2 53419  53.2181 115.2980 0001636  91.4845 268.6335 15.08839031101730,6917.883,95.438,540.88,538.617,0.0
53419.0,STARLINK-4476,PAYLOAD,2024-06-06 03:34:13,15.0883594,0.0001314,53.2185,114.1068,100.6702,259.4438,0.00012467,1.697e-05,0.0,0 STARLINK-4476,1 53419U 22097AH  24158.14877237  .00001697  00000-0  12467-3 0  9997,2 53419  53.2185 114.1068 0001314 100.6702 259.4438 15.08835940101778,6917.893,95.438,540.667,538.849,0.0
53419.0,STARLINK-4476,PAYLOAD,2024-06-07 20:54:15,15.08838974,0.0001405,53.217,106.3758,101.3919,258.7231,0.00013264,1.824e-05,0.0,0 STARLINK-4476,1 53419U 22097AH  24159.87101331  .00001824  00000-0  13264-3 0  9991,2 53419  53.2170 106.3758 0001405 101.3919 258.7231 15.08838974101571,6917.884,95.438,540.72,538.777,0.0
53419.0,STARLINK-4476,PAYLOAD,2024-06-08 12:48:06,15.0885818,0.0001467,53.2171,103.4036,97.7318,262.3841,0.00032828,4.943e-05,0.0,0 STARLINK-4476,1 53419U 22097AH  24160.53340344  .00004943  00000-0  32828-3 0  9997,2 53419  53.2171 103.4036 0001467  97.7318 262.3841 15.08858180102130,6917.825,95.436,540.705,538.675,0.0
53419.0,STARLINK-4476,PAYLOAD,2024-06-08 20:45:02,15.0885243,0.0003589,53.2165,101.9177,82.351,277.7889,0.000288,4.3e-05,0.0,0 STARLINK-4476,1 53419U 22097AH  24160.86461249  .00004300  00000-0  28800-3 0  9993,2 53419  53.2165 101.9177 0003589  82.3510 277.7889 15.08852430102182,6917.842,95.437,542.19,537.225,0.0
53419.0,STARLINK-4476,PAYLOAD,2024-06-09 03:06:35,15.08826944,0.0001462,53.2176,100.7309,88.9473,271.1687,-4.8347e-05,-1.057e-05,0.0,0 STARLINK-4476,1 53419U 22097AH  24161.12958268 -.00001057  00000-0 -48347-4 0  9992,2 53419  53.2176 100.7309 0001462  88.9473 271.1687 15.08826944101764,6917.92,95.438,540.797,538.774,0.0
53419.0,STARLINK-4476,PAYLOAD,2024-06-09 20:35:50,15.08836296,0.0001565,53.2177,97.4591,93.9492,266.1679,6.948e-05,8.18e-06,0.0,0 STARLINK-4476,1 53419U 22097AH  24161.85822138  .00000818  00000-0  69480-4 0  9991,2 53419  53.2177  97.4591 0001565  93.9492 266.1679 15.08836296101879,6917.892,95.438,540.839,538.674,0.0
53419.0,STARLINK-4476,PAYLOAD,2024-06-10 12:29:41,15.08860535,0.0001317,53.2167,94.4834,80.5511,279.563,0.00096959,0.00015185,0.0,0 STARLINK-4476,1 53419U 22097AH  24162.52061825  .00015185  00000-0  96959-3 0  9997,2 53419  53.2167  94.4834 0001317  80.5511 279.5630 15.08860535101973,6917.818,95.436,540.594,538.772,0.0
53419.0,STARLINK-4476,PAYLOAD,2024-06-11 04:23:32,15.08849893,0.0001356,53.2162,91.5102,83.6658,276.4488,0.00056745,8.757e-05,0.0,0 STARLINK-4476,1 53419U 22097AH  24163.18302031  .00008757  00000-0  56745-3 0  9993,2 53419  53.2162  91.5102 0001356  83.6658 276.4488 15.08849893102076,6917.85,95.437,540.653,538.777,0.0
53419.0,STARLINK-4476,PAYLOAD,2024-06-11 12:20:28,15.08857896,0.0001371,53.2163,90.0234,89.5764,270.5385,0.00098641,0.00015453,0.0,0 STARLINK-4476,1 53419U 22097AH  24163.51421840  .00015453  00000-0  98641-3 0  9992,2 53419  53.2163  90.0234 0001371  89.5764 270.5385 15.08857896102586,6917.826,95.436,540.639,538.742,0.0
53419.0,STARLINK-4476,PAYLOAD,2024-06-12 02:38:57,15.08833409,0.000123,53.2157,87.3467,110.7998,249.3126,0.00060936,9.422e-05,0.0,0 STARLINK-4476,1 53419U 22097AH  24164.11038520  .00009422  00000-0  60936-3 0  9993,2 53419  53.2157  87.3467 0001230 110.7998 249.3126 15.08833409102217,6917.901,95.438,540.616,538.915,0.0
53419.0,STARLINK-4476,PAYLOAD,2024-06-12 12:11:16,15.0884881,0.0001193,53.2151,85.5612,104.9755,255.1369,0.0010714,0.00016809,0.0,0 STARLINK-4476,1 53419U 22097AH  24164.50782493  .00016809  00000-0  10714-2 0  9996,2 53419  53.2151  85.5612 0001193 104.9755 255.1369 15.08848810102730,6917.853,95.437,540.544,538.893,0.0
53419.0,STARLINK-4476,PAYLOAD,2024-06-13 04:05:07,15.0884937,0.0001308,53.2156,82.5874,101.9138,258.2001,0.00095564,0.00014958,0.0,0 STARLINK-4476,1 53419U 22097AH  24165.17022610  .00014958  00000-0  95564-3 0  9998,2 53419  53.2156  82.5874 0001308 101.9138 258.2001 15.08849370102371,6917.852,95.437,540.622,538.812,0.0
53419.0,STARLINK-4476,PAYLOAD,2024-06-13 12:02:02,15.08862072,0.0001258,53.2156,81.101,91.0052,269.1085,0.00091413,0.00014299,0.0,0 STARLINK-4476,1 53419U 22097AH  24165.50142126  .00014299  00000-0  91413-3 0  9997,2 53419  53.2156  81.1010 0001258  91.0052 269.1085 15.08862072102889,6917.813,95.436,540.548,538.808,0.0
53419.0,STARLINK-4476,PAYLOAD,2024-06-13 21:34:21,15.08843645,0.0001245,53.2165,79.3163,101.146,258.9672,0.00012541,1.709e-05,0.0,0 STARLINK-4476,1 53419U 22097AH  24165.89886310  .00001709  00000-0  12541-3 0  9996,2 53419  53.2165  79.3163 0001245 101.1460 258.9672 15.08843645102949,6917.869,95.437,540.596,538.873,0.0
53419.0,STARLINK-4476,PAYLOAD,2024-06-14 00:45:08,15.08845445,0.0001355,53.2161,78.7204,100.8281,259.2864,0.00031582,4.743e-05,0.0,0 STARLINK-4476,1 53419U 22097AH  24166.03134285  .00004743  00000-0  31582-3 0  9997,2 53419  53.2161  78.7204 0001355 100.8281 259.2864 15.08845445102962,6917.864,95.437,540.666,538.791,0.0
53419.0,STARLINK-4476,PAYLOAD,2024-06-14 21:25:08,15.08849351,0.0001285,53.2165,74.8548,102.9864,257.1272,0.00064445,9.986e-05,0.0,0 STARLINK-4476,1 53419U 22097AH  24166.89246347  .00009986  00000-0  64445-3 0  9992,2 53419  53.2165  74.8548 0001285 102.9864 257.1272 15.08849351103091,6917.852,95.437,540.606,538.828,0.0
53419.0,STARLINK-4476,PAYLOAD,2024-06-15 00:35:55,15.08843819,0.0001254,53.2163,74.2603,99.6793,260.4341,0.00038656,5.87e-05,0.0,0 STARLINK-4476,1 53419U 22097AH  24167.02494319  .00005870  00000-0  38656-3 0  9995,2 53419  53.2163  74.2603 0001254  99.6793 260.4341 15.08843819103114,6917.869,95.437,540.601,538.866,0.0
53419.0,STARLINK-4476,PAYLOAD,2024-06-15 22:51:19,15.08843944,0.0001355,53.2169,70.096,101.5622,258.5523,0.00019585,2.831e-05,0.0,0 STARLINK-4476,1 53419U 22097AH  24167.95230358  .00002831  00000-0  19585-3 0  9992,2 53419  53.2169  70.0960 0001355 101.5622 258.5523 15.08843944103250,6917.868,95.437,540.671,538.796,0.0
53419.0,STARLINK-4476,PAYLOAD,2024-06-16 00:26:42,15.08844734,0.0001217,53.2166,69.8031,99.7426,260.3703,0.00019727,2.853e-05,0.0,0 STARLINK-4476,1 53419U 22097AH  24168.01854325  .00002853  00000-0  19727-3 0  9998,2 53419  53.2166  69.8031 0001217  99.7426 260.3703 15.08844734103269,6917.866,95.437,540.573,538.889,0.0
53419.0,STARLINK-4476,PAYLOAD,2024-06-16 22:42:06,15.08833999,0.0001225,53.2167,65.6416,103.3991,256.7137,-7.7962e-06,-4.12e-06,0.0,0 STARLINK-4476,1 53419U 22097AH  24168.94590830 -.00000412  00000-0 -77962-5 0  9996,2 53419  53.2167  65.6416 0001225 103.3991 256.7137 15.08833999103406,6917.899,95.438,540.611,538.916,0.0
53419.0,STARLINK-4476,PAYLOAD,2024-06-17 22:32:53,15.0884946,0.0001172,53.218,61.1794,96.6834,263.4291,-0.00018245,-3.191e-05,0.0,0 STARLINK-4476,1 53419U 22097AH  24169.93950975 -.00003191  00000-0 -18245-3 0  9990,2 53419  53.2180  61.1794 0001172  96.6834 263.4291 15.08849460103554,6917.851,95.437,540.527,538.906,0.0
53419.0,STARLINK-4476,PAYLOAD,2024-06-18 01:43:39,15.08838704,0.0001428,53.2192,60.5851,96.7776,263.3378,8.8497e-05,1.121e-05,0.0,0 STARLINK-4476,1 53419U 22097AH  24170.07199030  .00001121  00000-0  88497-4 0  9990,2 53419  53.2192  60.5851 0001428  96.7776 263.3378 15.08838704103110,6917.884,95.438,540.737,538.761,0.0
53419.0,STARLINK-4476,PAYLOAD,2024-06-18 09:40:34,15.08849376,0.0001193,53.2197,59.0984,81.5354,278.5774,0.0001824,2.617e-05,0.0,0 STARLINK-4476,1 53419U 22097AH  24170.40318152  .00002617  00000-0  18240-3 0  9994,2 53419  53.2197  59.0984 0001193  81.5354 278.5774 15.08849376103168,6917.852,95.437,540.542,538.891,0.0
53419.0,STARLINK-4476,PAYLOAD,2024-06-18 20:48:18,15.08831193,0.0001822,53.219,57.0167,86.4586,273.6614,0.00011091,1.477e-05,0.0,0 STARLINK-4476,1 53419U 22097AH  24170.86687672  .00001477  00000-0  11091-3 0  9990,2 53419  53.2190  57.0167 0001822  86.4586 273.6614 15.08831193103697,6917.907,95.438,541.033,538.512,0.0
53419.0,STARLINK-4476,PAYLOAD,2024-06-19 01:34:27,15.08827915,0.0002025,53.2191,56.1246,83.4277,276.6946,7.1497e-05,8.5e-06,0.0,0 STARLINK-4476,1 53419U 22097AH  24171.06560149  .00000850  00000-0  71497-4 0  9993,2 53419  53.2191  56.1246 0002025  83.4277 276.6946 15.08827915103267,6917.917,95.438,541.183,538.381,0.0
53419.0,STARLINK-4476,PAYLOAD,2024-06-19 09:31:22,15.08844849,0.0001599,53.2181,54.6374,80.093,280.0243,0.00013895,1.924e-05,0.0,0 STARLINK-4476,1 53419U 22097AH  24171.39678785  .00001924  00000-0  13895-3 0  9995,2 53419  53.2181  54.6374 0001599  80.0930 280.0243 15.08844849103315,6917.866,95.437,540.837,538.624,0.0
53419.0,STARLINK-4476,PAYLOAD,2024-06-19 22:14:28,15.08839314,0.0001536,53.2182,52.2559,83.1788,276.9378,2.3811e-05,9.1e-07,0.0,0 STARLINK-4476,1 53419U 22097AH  24171.92671458  .00000091  00000-0  23811-4 0  9998,2 53419  53.2182  52.2559 0001536  83.1788 276.9378 15.08839314103854,6917.882,95.438,540.81,538.685,0.0
53419.0,STARLINK-4476,PAYLOAD,2024-06-20 09:22:09,15.08853126,0.0001422,53.2179,50.178,79.2813,280.8339,6.4596e-05,7.41e-06,0.0,0 STARLINK-4476,1 53419U 22097AH  24172.39038266  .00000741  00000-0  64596-4 0  9991,2 53419  53.2179  50.1780 0001422  79.2813 280.8339 15.08853126103928,6917.84,95.437,540.689,538.722,0.0
